{
  "type": "FeatureCollection",
  "features": [
    {
      "type": "Feature",
      "properties": {
        "norad_id": 40069,
        "name": "METEOR-M 2",
        "group": "weather",
        "lat": 38.449972932339946,
        "lon": 153.946060500677,
        "alt_km": 815.9009761411135,
        "timestamp": "2025-12-15T15:53:19.524939+00:00",
        "meta_object_name": "METEOR-M 2",
        "meta_object_id": "2014-037A",
        "meta_epoch": "2025-12-14T22:19:58.694880",
        "meta_mean_motion": 14.21387985,
        "meta_eccentricity": 0.00050988,
        "meta_inclination": 98.4902,
        "meta_ra_of_asc_node": 326.4312,
        "meta_arg_of_pericenter": 202.8399,
        "meta_mean_anomaly": 157.2553,
        "meta_ephemeris_type": 0,
        "meta_classification_type": "U",
        "meta_norad_cat_id": 40069,
        "meta_element_set_no": 999,
        "meta_rev_at_epoch": 59314,
        "meta_bstar": 0.00019314635,
        "meta_mean_motion_dot": 3.8e-06,
        "meta_mean_motion_ddot": 0,
        "tle_line1": "1 40069U 14037A   25348.93054045  .00000380  00000+0  19315-3 0  9998",
        "tle_line2": "2 40069  98.4902 326.4312 0005098 202.8399 157.2553 14.21387985593147"
      },
      "geometry": {
        "type": "Point",
        "coordinates": [
          153.946060500677,
          38.449972932339946
        ]
      }
    },
    {
      "type": "Feature",
      "properties": {
        "norad_id": 40267,
        "name": "HIMAWARI-8",
        "group": "weather",
        "lat": 0.0035971093722961616,
        "lon": 103.548386660563,
        "alt_km": 35789.58977548032,
        "timestamp": "2025-12-15T15:53:19.524949+00:00",
        "meta_object_name": "HIMAWARI-8",
        "meta_object_id": "2014-060A",
        "meta_epoch": "2025-12-14T22:38:53.164032",
        "meta_mean_motion": 1.00273206,
        "meta_eccentricity": 9.061e-05,
        "meta_inclination": 0.0104,
        "meta_ra_of_asc_node": 238.1758,
        "meta_arg_of_pericenter": 47.1377,
        "meta_mean_anomaly": 278.9244,
        "meta_ephemeris_type": 0,
        "meta_classification_type": "U",
        "meta_norad_cat_id": 40267,
        "meta_element_set_no": 999,
        "meta_rev_at_epoch": 4091,
        "meta_bstar": 0,
        "meta_mean_motion_dot": -2.55e-06,
        "meta_mean_motion_ddot": 0,
        "tle_line1": "1 40267U 14060A   25348.94367088 -.00000255  00000+0  00000+0 0  9998",
        "tle_line2": "2 40267   0.0104 238.1758 0000906  47.1377 278.9244  1.00273206 40915"
      },
      "geometry": {
        "type": "Point",
        "coordinates": [
          103.548386660563,
          0.0035971093722961616
        ]
      }
    },
    {
      "type": "Feature",
      "properties": {
        "norad_id": 40367,
        "name": "FENGYUN 2G",
        "group": "weather",
        "lat": -1.1154931078620927,
        "lon": 62.40013943508987,
        "alt_km": 35799.3684540481,
        "timestamp": "2025-12-15T15:53:19.524960+00:00",
        "meta_object_name": "FENGYUN 2G",
        "meta_object_id": "2014-090A",
        "meta_epoch": "2025-12-14T19:01:36.473664",
        "meta_mean_motion": 1.00263482,
        "meta_eccentricity": 0.00030138,
        "meta_inclination": 5.1737,
        "meta_ra_of_asc_node": 75.0751,
        "meta_arg_of_pericenter": 200.3872,
        "meta_mean_anomaly": 193.116,
        "meta_ephemeris_type": 0,
        "meta_classification_type": "U",
        "meta_norad_cat_id": 40367,
        "meta_element_set_no": 999,
        "meta_rev_at_epoch": 4015,
        "meta_bstar": 0,
        "meta_mean_motion_dot": -2.83e-06,
        "meta_mean_motion_ddot": 0,
        "tle_line1": "1 40367U 14090A   25348.79278326 -.00000283  00000+0  00000+0 0  9992",
        "tle_line2": "2 40367   5.1737  75.0751 0003013 200.3872 193.1160  1.00263482 40156"
      },
      "geometry": {
        "type": "Point",
        "coordinates": [
          62.40013943508987,
          -1.1154931078620927
        ]
      }
    },
    {
      "type": "Feature",
      "properties": {
        "norad_id": 40732,
        "name": "METEOSAT-11 (MSG-4)",
        "group": "weather",
        "lat": -2.7060532322513047,
        "lon": -27.865590084969263,
        "alt_km": 35789.869520132066,
        "timestamp": "2025-12-15T15:53:19.524975+00:00",
        "meta_object_name": "METEOSAT-11 (MSG-4)",
        "meta_object_id": "2015-034A",
        "meta_epoch": "2025-12-14T22:01:19.261056",
        "meta_mean_motion": 1.00268171,
        "meta_eccentricity": 9.122e-05,
        "meta_inclination": 2.7411,
        "meta_ra_of_asc_node": 71.9954,
        "meta_arg_of_pericenter": 129.6197,
        "meta_mean_anomaly": 221.8035,
        "meta_ephemeris_type": 0,
        "meta_classification_type": "U",
        "meta_norad_cat_id": 40732,
        "meta_element_set_no": 999,
        "meta_rev_at_epoch": 536,
        "meta_bstar": 0,
        "meta_mean_motion_dot": 8e-07,
        "meta_mean_motion_ddot": 0,
        "tle_line1": "1 40732U 15034A   25348.91758404  .00000080  00000+0  00000+0 0  9995",
        "tle_line2": "2 40732   2.7411  71.9954 0000912 129.6197 221.8035  1.00268171  5366"
      },
      "geometry": {
        "type": "Point",
        "coordinates": [
          -27.865590084969263,
          -2.7060532322513047
        ]
      }
    },
    {
      "type": "Feature",
      "properties": {
        "norad_id": 41105,
        "name": "ELEKTRO-L 2",
        "group": "weather",
        "lat": -5.156314570141427,
        "lon": -51.73733210444531,
        "alt_km": 35772.092118095905,
        "timestamp": "2025-12-15T15:53:19.524998+00:00",
        "meta_object_name": "ELEKTRO-L 2",
        "meta_object_id": "2015-074A",
        "meta_epoch": "2025-12-14T01:21:52.095744",
        "meta_mean_motion": 1.0027252,
        "meta_eccentricity": 0.00038925,
        "meta_inclination": 6.2293,
        "meta_ra_of_asc_node": 72.8137,
        "meta_arg_of_pericenter": 207.3981,
        "meta_mean_anomaly": 168.7392,
        "meta_ephemeris_type": 0,
        "meta_classification_type": "U",
        "meta_norad_cat_id": 41105,
        "meta_element_set_no": 999,
        "meta_rev_at_epoch": 3665,
        "meta_bstar": 0,
        "meta_mean_motion_dot": -1.03e-06,
        "meta_mean_motion_ddot": 0,
        "tle_line1": "1 41105U 15074A   25348.05685296 -.00000103  00000+0  00000+0 0  9994",
        "tle_line2": "2 41105   6.2293  72.8137 0003892 207.3981 168.7392  1.00272520 36650"
      },
      "geometry": {
        "type": "Point",
        "coordinates": [
          -51.73733210444531,
          -5.156314570141427
        ]
      }
    },
    {
      "type": "Feature",
      "properties": {
        "norad_id": 41752,
        "name": "INSAT-3DR",
        "group": "weather",
        "lat": -0.051984784983928986,
        "lon": 37.00805984852735,
        "alt_km": 35821.597388827606,
        "timestamp": "2025-12-15T15:53:19.525009+00:00",
        "meta_object_name": "INSAT-3DR",
        "meta_object_id": "2016-054A",
        "meta_epoch": "2025-12-14T22:19:47.492256",
        "meta_mean_motion": 1.00271457,
        "meta_eccentricity": 0.00142385,
        "meta_inclination": 0.0974,
        "meta_ra_of_asc_node": 86.7634,
        "meta_arg_of_pericenter": 184.3023,
        "meta_mean_anomaly": 221.7169,
        "meta_ephemeris_type": 0,
        "meta_classification_type": "U",
        "meta_norad_cat_id": 41752,
        "meta_element_set_no": 999,
        "meta_rev_at_epoch": 3397,
        "meta_bstar": 0,
        "meta_mean_motion_dot": -5.7e-07,
        "meta_mean_motion_ddot": 0,
        "tle_line1": "1 41752U 16054A   25348.93041079 -.00000057  00000+0  00000+0 0  9991",
        "tle_line2": "2 41752   0.0974  86.7634 0014238 184.3023 221.7169  1.00271457 33971"
      },
      "geometry": {
        "type": "Point",
        "coordinates": [
          37.00805984852735,
          -0.051984784983928986
        ]
      }
    },
    {
      "type": "Feature",
      "properties": {
        "norad_id": 41836,
        "name": "HIMAWARI-9",
        "group": "weather",
        "lat": 0.025000668476163675,
        "lon": 103.65266461889588,
        "alt_km": 35790.33720708941,
        "timestamp": "2025-12-15T15:53:19.525019+00:00",
        "meta_object_name": "HIMAWARI-9",
        "meta_object_id": "2016-064A",
        "meta_epoch": "2025-12-14T22:38:53.164032",
        "meta_mean_motion": 1.00272988,
        "meta_eccentricity": 0.00010766,
        "meta_inclination": 0.0419,
        "meta_ra_of_asc_node": 96.9426,
        "meta_arg_of_pericenter": 179.7054,
        "meta_mean_anomaly": 287.6965,
        "meta_ephemeris_type": 0,
        "meta_classification_type": "U",
        "meta_norad_cat_id": 41836,
        "meta_element_set_no": 999,
        "meta_rev_at_epoch": 3336,
        "meta_bstar": 0,
        "meta_mean_motion_dot": -2.54e-06,
        "meta_mean_motion_ddot": 0,
        "tle_line1": "1 41836U 16064A   25348.94367088 -.00000254  00000+0  00000+0 0  9996",
        "tle_line2": "2 41836   0.0419  96.9426 0001076 179.7054 287.6965  1.00272988 33366"
      },
      "geometry": {
        "type": "Point",
        "coordinates": [
          103.65266461889588,
          0.025000668476163675
        ]
      }
    }
  ]
}